{
  "type": "FeatureCollection",
  "features": [
    {
      "type": "Feature",
      "properties": {
        "norad_id": 28890,
        "name": "BEIJING 1",
        "group": "dmc",
        "lat": -81.70205981812666,
        "lon": -153.29799823813335,
        "alt_km": 699.2585269065412,
        "timestamp": "2025-12-19T20:42:59.747587+00:00",
        "meta_object_name": "BEIJING 1",
        "meta_object_id": "2005-043A",
        "meta_epoch": "2025-12-19T06:21:22.348800",
        "meta_mean_motion": 14.63371918,
        "meta_eccentricity": 0.00156323,
        "meta_inclination": 98.2652,
        "meta_ra_of_asc_node": 120.7869,
        "meta_arg_of_pericenter": 122.0118,
        "meta_mean_anomaly": 238.2605,
        "meta_ephemeris_type": 0,
        "meta_classification_type": "U",
        "meta_norad_cat_id": 28890,
        "meta_element_set_no": 999,
        "meta_rev_at_epoch": 7433,
        "meta_bstar": 6.0827842e-05,
        "meta_mean_motion_dot": 2.66e-06,
        "meta_mean_motion_ddot": 0,
        "tle_line1": "1 28890U 05043A   25353.26484200  .00000266  00000+0  60828-4 0  9994",
        "tle_line2": "2 28890  98.2652 120.7869 0015632 122.0118 238.2605 14.63371918 74332"
      },
      "geometry": {
        "type": "Point",
        "coordinates": [
          -153.29799823813335,
          -81.70205981812666
        ]
      }
    },
    {
      "type": "Feature",
      "properties": {
        "norad_id": 33320,
        "name": "HUANJING 1A (HJ-1A)",
        "group": "dmc",
        "lat": 82.28644655120851,
        "lon": -115.02585572504104,
        "alt_km": 608.4861118492745,
        "timestamp": "2025-12-19T20:42:59.747610+00:00",
        "meta_object_name": "HUANJING 1A (HJ-1A)",
        "meta_object_id": "2008-041A",
        "meta_epoch": "2025-12-19T07:21:30.368736",
        "meta_mean_motion": 14.83413315,
        "meta_eccentricity": 0.00197251,
        "meta_inclination": 97.6534,
        "meta_ra_of_asc_node": 341.3311,
        "meta_arg_of_pericenter": 13.5553,
        "meta_mean_anomaly": 346.6187,
        "meta_ephemeris_type": 0,
        "meta_classification_type": "U",
        "meta_norad_cat_id": 33320,
        "meta_element_set_no": 999,
        "meta_rev_at_epoch": 93173,
        "meta_bstar": 0.00011708039,
        "meta_mean_motion_dot": 9.13e-06,
        "meta_mean_motion_ddot": 0,
        "tle_line1": "1 33320U 08041A   25353.30660149  .00000913  00000+0  11708-3 0  9993",
        "tle_line2": "2 33320  97.6534 341.3311 0019725  13.5553 346.6187 14.83413315931730"
      },
      "geometry": {
        "type": "Point",
        "coordinates": [
          -115.02585572504104,
          82.28644655120851
        ]
      }
    },
    {
      "type": "Feature",
      "properties": {
        "norad_id": 33321,
        "name": "HUANJING 1B (HJ-1B)",
        "group": "dmc",
        "lat": -62.39072950605445,
        "lon": 0.4133679647463477,
        "alt_km": 639.3399770245887,
        "timestamp": "2025-12-19T20:42:59.747624+00:00",
        "meta_object_name": "HUANJING 1B (HJ-1B)",
        "meta_object_id": "2008-041B",
        "meta_epoch": "2025-12-19T06:25:34.560768",
        "meta_mean_motion": 14.82837298,
        "meta_eccentricity": 0.00380187,
        "meta_inclination": 97.6394,
        "meta_ra_of_asc_node": 344.9738,
        "meta_arg_of_pericenter": 55.0491,
        "meta_mean_anomaly": 305.4284,
        "meta_ephemeris_type": 0,
        "meta_classification_type": "U",
        "meta_norad_cat_id": 33321,
        "meta_element_set_no": 999,
        "meta_rev_at_epoch": 93174,
        "meta_bstar": 0.00012850277,
        "meta_mean_motion_dot": 1.001e-05,
        "meta_mean_motion_ddot": 0,
        "tle_line1": "1 33321U 08041B   25353.26776112  .00001001  00000+0  12850-3 0  9995",
        "tle_line2": "2 33321  97.6394 344.9738 0038018  55.0491 305.4284 14.82837298931746"
      },
      "geometry": {
        "type": "Point",
        "coordinates": [
          0.4133679647463477,
          -62.39072950605445
        ]
      }
    },
    {
      "type": "Feature",
      "properties": {
        "norad_id": 33446,
        "name": "YAOGAN-4",
        "group": "dmc",
        "lat": -25.040319152187227,
        "lon": 100.16425297071628,
        "alt_km": 626.95681171871,
        "timestamp": "2025-12-19T20:42:59.747637+00:00",
        "meta_object_name": "YAOGAN-4",
        "meta_object_id": "2008-061A",
        "meta_epoch": "2025-12-19T05:12:57.035520",
        "meta_mean_motion": 14.8270017,
        "meta_eccentricity": 0.00131785,
        "meta_inclination": 97.919,
        "meta_ra_of_asc_node": 283.2531,
        "meta_arg_of_pericenter": 300.5796,
        "meta_mean_anomaly": 59.4117,
        "meta_ephemeris_type": 0,
        "meta_classification_type": "U",
        "meta_norad_cat_id": 33446,
        "meta_element_set_no": 999,
        "meta_rev_at_epoch": 91899,
        "meta_bstar": 0.00012404803,
        "meta_mean_motion_dot": 9.48e-06,
        "meta_mean_motion_ddot": 0,
        "tle_line1": "1 33446U 08061A   25353.21732680  .00000948  00000+0  12405-3 0  9997",
        "tle_line2": "2 33446  97.9190 283.2531 0013178 300.5796  59.4117 14.82700170918994"
      },
      "geometry": {
        "type": "Point",
        "coordinates": [
          100.16425297071628,
          -25.040319152187227
        ]
      }
    },
    {
      "type": "Feature",
      "properties": {
        "norad_id": 35681,
        "name": "DEIMOS-1",
        "group": "dmc",
        "lat": 42.45084566479963,
        "lon": -18.743481587417314,
        "alt_km": 641.1673617753431,
        "timestamp": "2025-12-19T20:42:59.747649+00:00",
        "meta_object_name": "DEIMOS-1",
        "meta_object_id": "2009-041A",
        "meta_epoch": "2025-12-19T07:04:21.552960",
        "meta_mean_motion": 14.74962922,
        "meta_eccentricity": 0.00026177,
        "meta_inclination": 97.7142,
        "meta_ra_of_asc_node": 153.5921,
        "meta_arg_of_pericenter": 69.3038,
        "meta_mean_anomaly": 290.8452,
        "meta_ephemeris_type": 0,
        "meta_classification_type": "U",
        "meta_norad_cat_id": 35681,
        "meta_element_set_no": 999,
        "meta_rev_at_epoch": 88036,
        "meta_bstar": 0.00011016049,
        "meta_mean_motion_dot": 6.93e-06,
        "meta_mean_motion_ddot": 0,
        "tle_line1": "1 35681U 09041A   25353.29469390  .00000693  00000+0  11016-3 0  9996",
        "tle_line2": "2 35681  97.7142 153.5921 0002617  69.3038 290.8452 14.74962922880367"
      },
      "geometry": {
        "type": "Point",
        "coordinates": [
          -18.743481587417314,
          42.45084566479963
        ]
      }
    },
    {
      "type": "Feature",
      "properties": {
        "norad_id": 35683,
        "name": "UK-DMC 2",
        "group": "dmc",
        "lat": 10.457909503148096,
        "lon": -49.97544114986542,
        "alt_km": 644.4544750718287,
        "timestamp": "2025-12-19T20:42:59.747660+00:00",
        "meta_object_name": "UK-DMC 2",
        "meta_object_id": "2009-041C",
        "meta_epoch": "2025-12-19T06:55:57.413280",
        "meta_mean_motion": 14.75636354,
        "meta_eccentricity": 0.00015023,
        "meta_inclination": 97.8559,
        "meta_ra_of_asc_node": 128.0063,
        "meta_arg_of_pericenter": 93.7166,
        "meta_mean_anomaly": 266.4215,
        "meta_ephemeris_type": 0,
        "meta_classification_type": "U",
        "meta_norad_cat_id": 35683,
        "meta_element_set_no": 999,
        "meta_rev_at_epoch": 88003,
        "meta_bstar": 0.00016297204,
        "meta_mean_motion_dot": 1.063e-05,
        "meta_mean_motion_ddot": 0,
        "tle_line1": "1 35683U 09041C   25353.28885895  .00001063  00000+0  16297-3 0  9997",
        "tle_line2": "2 35683  97.8559 128.0063 0001502  93.7166 266.4215 14.75636354880039"
      },
      "geometry": {
        "type": "Point",
        "coordinates": [
          -49.97544114986542,
          10.457909503148096
        ]
      }
    },
    {
      "type": "Feature",
      "properties": {
        "norad_id": 40715,
        "name": "DMC3-FM1",
        "group": "dmc",
        "lat": 69.0215809408824,
        "lon": 61.3702426302001,
        "alt_km": 608.4611676893392,
        "timestamp": "2025-12-19T20:42:59.747671+00:00",
        "meta_object_name": "DMC3-FM1",
        "meta_object_id": "2015-032A",
        "meta_epoch": "2025-12-19T05:40:29.997984",
        "meta_mean_motion": 14.85449153,
        "meta_eccentricity": 0.00042684,
        "meta_inclination": 97.6692,
        "meta_ra_of_asc_node": 220.1918,
        "meta_arg_of_pericenter": 295.3865,
        "meta_mean_anomaly": 64.6908,
        "meta_ephemeris_type": 0,
        "meta_classification_type": "U",
        "meta_norad_cat_id": 40715,
        "meta_element_set_no": 999,
        "meta_rev_at_epoch": 56319,
        "meta_bstar": 2.467155e-05,
        "meta_mean_motion_dot": 1.61e-06,
        "meta_mean_motion_ddot": 0,
        "tle_line1": "1 40715U 15032A   25353.23645831  .00000161  00000+0  24672-4 0  9990",
        "tle_line2": "2 40715  97.6692 220.1918 0004268 295.3865  64.6908 14.85449153563190"
      },
      "geometry": {
        "type": "Point",
        "coordinates": [
          61.3702426302001,
          69.0215809408824
        ]
      }
    },
    {
      "type": "Feature",
      "properties": {
        "norad_id": 40716,
        "name": "DMC3-FM2",
        "group": "dmc",
        "lat": -10.620410231202927,
        "lon": -136.30677119528832,
        "alt_km": 614.3230448736804,
        "timestamp": "2025-12-19T20:42:59.747682+00:00",
        "meta_object_name": "DMC3-FM2",
        "meta_object_id": "2015-032B",
        "meta_epoch": "2025-12-19T06:12:53.012160",
        "meta_mean_motion": 14.85452149,
        "meta_eccentricity": 0.0004832,
        "meta_inclination": 97.6749,
        "meta_ra_of_asc_node": 221.6618,
        "meta_arg_of_pericenter": 300.8638,
        "meta_mean_anomaly": 59.2101,
        "meta_ephemeris_type": 0,
        "meta_classification_type": "U",
        "meta_norad_cat_id": 40716,
        "meta_element_set_no": 999,
        "meta_rev_at_epoch": 56319,
        "meta_bstar": 9.3199308e-05,
        "meta_mean_motion_dot": 7.52e-06,
        "meta_mean_motion_ddot": 0,
        "tle_line1": "1 40716U 15032B   25353.25894690  .00000752  00000+0  93199-4 0  9998",
        "tle_line2": "2 40716  97.6749 221.6618 0004832 300.8638  59.2101 14.85452149563198"
      },
      "geometry": {
        "type": "Point",
        "coordinates": [
          -136.30677119528832,
          -10.620410231202927
        ]
      }
    },
    {
      "type": "Feature",
      "properties": {
        "norad_id": 40717,
        "name": "DMC3-FM3",
        "group": "dmc",
        "lat": -52.84146641254448,
        "lon": 33.62551552540334,
        "alt_km": 618.1067228614838,
        "timestamp": "2025-12-19T20:42:59.747692+00:00",
        "meta_object_name": "DMC3-FM3",
        "meta_object_id": "2015-032C",
        "meta_epoch": "2025-12-19T06:44:05.911008",
        "meta_mean_motion": 14.85441439,
        "meta_eccentricity": 0.00041429,
        "meta_inclination": 97.6806,
        "meta_ra_of_asc_node": 223.3203,
        "meta_arg_of_pericenter": 303.2314,
        "meta_mean_anomaly": 56.8504,
        "meta_ephemeris_type": 0,
        "meta_classification_type": "U",
        "meta_norad_cat_id": 40717,
        "meta_element_set_no": 999,
        "meta_rev_at_epoch": 56320,
        "meta_bstar": 0.00012670108,
        "meta_mean_motion_dot": 1.041e-05,
        "meta_mean_motion_ddot": 0,
        "tle_line1": "1 40717U 15032C   25353.28062397  .00001041  00000+0  12670-3 0  9999",
        "tle_line2": "2 40717  97.6806 223.3203 0004142 303.2314  56.8504 14.85441439563206"
      },
      "geometry": {
        "type": "Point",
        "coordinates": [
          33.62551552540334,
          -52.84146641254448
        ]
      }
    }
  ]
}